{
  "name": "StampWiki",
  "pages": {
    "ar": {},
    "de": {},
    "en": {},
    "es": {},
    "ga": {},
    "he": {},
    "hi": {},
    "hu": {},
    "id": {},
    "ko": {},
    "zh": {}
  },
  "roles": {
    "vh-NTHVvlKZqRxc8LyyTNok65yQ55a_PJ1zWLb9G2JI": "Moderator"
  },
  "vault": {},
  "votes": [],
  "stakes": {},
  "ticker": "STAMP_WIKI",
  "balances": {
    "vh-NTHVvlKZqRxc8LyyTNok65yQ55a_PJ1zWLb9G2JI": 2999999999999999
  },
  "settings": [
    [
      "quorum",
      0.1
    ],
    [
      "support",
      0.5
    ],
    [
      "voteLength",
      10
    ],
    [
      "lockMinLength",
      100
    ],
    [
      "lockMaxLength",
      41600
    ],
    [
      "pageApprovalLength",
      2
    ],
    [
      "moderatorsMinVaultBalance",
      100
    ],
    [
      "communityLogo",
      "VfQ7C8l0z3sM8gQVHyE3BJ68F9zflwVXUZE8BawdObU"
    ],
    [
      "communityDescription",
      "About the STAMP Protocol"
    ],
    [
      "communityAppUrl",
      "https://stamps.g8way.io"
    ],
    [
      "noteVoteMaxLength",
      200
    ],
    [
      "keyVoteMaxLength",
      50
    ],
    [
      "keyStringValueVoteMaxLength",
      50
    ],
    [
      "roleValueVoteMaxLength",
      50
    ],
    [
      "pageSlugMaxLength",
      70
    ]
  ],
  "languages": {
    "ar": {
      "active": true,
      "iso_name": "Arabic",
      "native_name": "العربية",
      "writing_system": "RTL"
    },
    "de": {
      "active": true,
      "iso_name": "German",
      "native_name": "Deutsch",
      "writing_system": "LTR"
    },
    "en": {
      "active": true,
      "iso_name": "English",
      "native_name": "English",
      "writing_system": "LTR"
    },
    "es": {
      "active": true,
      "iso_name": "Spanish",
      "native_name": "Español",
      "writing_system": "LTR"
    },
    "ga": {
      "active": true,
      "iso_name": "Irish",
      "native_name": "Gaeilge",
      "writing_system": "LTR"
    },
    "he": {
      "active": true,
      "iso_name": "Hebrew",
      "native_name": "עברית",
      "writing_system": "RTL"
    },
    "hi": {
      "active": true,
      "iso_name": "Hindi",
      "native_name": "हिन्दी, हिंदी",
      "writing_system": "LTR"
    },
    "hu": {
      "active": true,
      "iso_name": "Hungarian",
      "native_name": "magyar",
      "writing_system": "LTR"
    },
    "id": {
      "active": true,
      "iso_name": "Indonesian",
      "native_name": "Bahasa Indonesia",
      "writing_system": "LTR"
    },
    "ko": {
      "active": true,
      "iso_name": "Korean",
      "native_name": "한국어",
      "writing_system": "LTR"
    },
    "zh": {
      "active": true,
      "iso_name": "Chinese",
      "native_name": "中文",
      "writing_system": "LTR"
    }
  },
  "categories": {
    "en": {
      "concept": {
        "label": "Concept",
        "order": 10,
        "active": true,
        "parent_id": null
      },
      "use_cases": {
        "label": "Use Cases",
        "order": 20,
        "active": true,
        "parent_id": null
      },
      "developers": {
        "label": "Developers",
        "order": 30,
        "active": true,
        "parent_id": null
      },
      "tokenomics": {
        "label": "Tokenomics",
        "order": 40,
        "active": true,
        "parent_id": null
      },
      "community": {
        "label": "Community",
        "order": 50,
        "active": true,
        "parent_id": null
      }
    }
  }
}